CCSDS_OMM_VERS = 2.0
CREATION_DATE  = 
ORIGINATOR     = 

OBJECT_NAME    = STARLINK-36927
OBJECT_ID      = 2026-037K
CENTER_NAME    = EARTH
REF_FRAME      = TEME
TIME_SYSTEM    = UTC
MEAN_ELEMENT_THEORY = SGP/SGP4

EPOCH          = 2026-03-18T06:00:02.000160
MEAN_MOTION    = 15.76003639
ECCENTRICITY   = .00009147
INCLINATION    = 42.9989
RA_OF_ASC_NODE = 146.0275
ARG_OF_PERICENTER = 270.6712
MEAN_ANOMALY   = 249.5245

EPHEMERIS_TYPE = 0
CLASSIFICATION_TYPE = U
NORAD_CAT_ID   = 67941
ELEMENT_SET_NO = 999
REV_AT_EPOCH   = 457
BSTAR          = -.13791653E-1
MEAN_MOTION_DOT = -.1919555E-1
MEAN_MOTION_DDOT = 0

CCSDS_OMM_VERS = 2.0
CREATION_DATE  = 
ORIGINATOR     = 

OBJECT_NAME    = STARLINK-36914
OBJECT_ID      = 2026-037L
CENTER_NAME    = EARTH
REF_FRAME      = TEME
TIME_SYSTEM    = UTC
MEAN_ELEMENT_THEORY = SGP/SGP4

EPOCH          = 2026-03-18T05:19:57.727488
MEAN_MOTION    = 15.82166214
ECCENTRICITY   = .00013711
INCLINATION    = 42.9979
RA_OF_ASC_NODE = 146.2001
ARG_OF_PERICENTER = 261.7124
MEAN_ANOMALY   = 98.3593

EPHEMERIS_TYPE = 0
CLASSIFICATION_TYPE = U
NORAD_CAT_ID   = 67942
ELEMENT_SET_NO = 999
REV_AT_EPOCH   = 460
BSTAR          = .23497716E-2
MEAN_MOTION_DOT = .529455E-2
MEAN_MOTION_DDOT = 0

CCSDS_OMM_VERS = 2.0
CREATION_DATE  = 
ORIGINATOR     = 

OBJECT_NAME    = STARLINK-36851
OBJECT_ID      = 2026-037M
CENTER_NAME    = EARTH
REF_FRAME      = TEME
TIME_SYSTEM    = UTC
MEAN_ELEMENT_THEORY = SGP/SGP4

EPOCH          = 2026-03-18T06:00:02.000160
MEAN_MOTION    = 15.76991365
ECCENTRICITY   = .00011699
INCLINATION    = 42.9990
RA_OF_ASC_NODE = 146.0479
ARG_OF_PERICENTER = 273.0339
MEAN_ANOMALY   = 239.0530

EPHEMERIS_TYPE = 0
CLASSIFICATION_TYPE = U
NORAD_CAT_ID   = 67943
ELEMENT_SET_NO = 999
REV_AT_EPOCH   = 457
BSTAR          = -.13203371E-1
MEAN_MOTION_DOT = -.1921004E-1
MEAN_MOTION_DDOT = 0

CCSDS_OMM_VERS = 2.0
CREATION_DATE  = 
ORIGINATOR     = 

OBJECT_NAME    = STARLINK-36892
OBJECT_ID      = 2026-037N
CENTER_NAME    = EARTH
REF_FRAME      = TEME
TIME_SYSTEM    = UTC
MEAN_ELEMENT_THEORY = SGP/SGP4

EPOCH          = 2026-03-18T06:00:02.000160
MEAN_MOTION    = 15.77797376
ECCENTRICITY   = .00009982
INCLINATION    = 42.9988
RA_OF_ASC_NODE = 146.0191
ARG_OF_PERICENTER = 267.5318
MEAN_ANOMALY   = 256.3152

EPHEMERIS_TYPE = 0
CLASSIFICATION_TYPE = U
NORAD_CAT_ID   = 67944
ELEMENT_SET_NO = 999
REV_AT_EPOCH   = 457
BSTAR          = -.12759184E-1
MEAN_MOTION_DOT = -.1924614E-1
MEAN_MOTION_DDOT = 0

CCSDS_OMM_VERS = 2.0
CREATION_DATE  = 
ORIGINATOR     = 

OBJECT_NAME    = STARLINK-36908
OBJECT_ID      = 2026-037P
CENTER_NAME    = EARTH
REF_FRAME      = TEME
TIME_SYSTEM    = UTC
MEAN_ELEMENT_THEORY = SGP/SGP4

EPOCH          = 2026-03-17T21:40:10.477056
MEAN_MOTION    = 15.81758378
ECCENTRICITY   = .00013393
INCLINATION    = 42.9985
RA_OF_ASC_NODE = 148.1053
ARG_OF_PERICENTER = 333.9537
MEAN_ANOMALY   = 26.1268

EPHEMERIS_TYPE = 0
CLASSIFICATION_TYPE = U
NORAD_CAT_ID   = 67945
ELEMENT_SET_NO = 999
REV_AT_EPOCH   = 455
BSTAR          = .20122771E-2
MEAN_MOTION_DOT = .44015E-2
MEAN_MOTION_DDOT = 0

CCSDS_OMM_VERS = 2.0
CREATION_DATE  = 
ORIGINATOR     = 

OBJECT_NAME    = STARLINK-36909
OBJECT_ID      = 2026-037Q
CENTER_NAME    = EARTH
REF_FRAME      = TEME
TIME_SYSTEM    = UTC
MEAN_ELEMENT_THEORY = SGP/SGP4

EPOCH          = 2026-03-17T21:38:56.012352
MEAN_MOTION    = 15.82194587
ECCENTRICITY   = .00019028
INCLINATION    = 42.9983
RA_OF_ASC_NODE = 148.0978
ARG_OF_PERICENTER = 292.0212
MEAN_ANOMALY   = 68.0457

EPHEMERIS_TYPE = 0
CLASSIFICATION_TYPE = U
NORAD_CAT_ID   = 67946
ELEMENT_SET_NO = 999
REV_AT_EPOCH   = 455
BSTAR          = .23294448E-2
MEAN_MOTION_DOT = .525285E-2
MEAN_MOTION_DDOT = 0

CCSDS_OMM_VERS = 2.0
CREATION_DATE  = 
ORIGINATOR     = 

OBJECT_NAME    = STARLINK-36920
OBJECT_ID      = 2026-037R
CENTER_NAME    = EARTH
REF_FRAME      = TEME
TIME_SYSTEM    = UTC
MEAN_ELEMENT_THEORY = SGP/SGP4

EPOCH          = 2026-03-17T21:42:43.289280
MEAN_MOTION    = 15.78600315
ECCENTRICITY   = .00147864
INCLINATION    = 42.9989
RA_OF_ASC_NODE = 148.1192
ARG_OF_PERICENTER = 343.1783
MEAN_ANOMALY   = 16.8596

EPHEMERIS_TYPE = 0
CLASSIFICATION_TYPE = U
NORAD_CAT_ID   = 67947
ELEMENT_SET_NO = 999
REV_AT_EPOCH   = 455
BSTAR          = .16749596E-2
MEAN_MOTION_DOT = .314164E-2
MEAN_MOTION_DDOT = 0

CCSDS_OMM_VERS = 2.0
CREATION_DATE  = 
ORIGINATOR     = 

OBJECT_NAME    = STARLINK-36873
OBJECT_ID      = 2026-037S
CENTER_NAME    = EARTH
REF_FRAME      = TEME
TIME_SYSTEM    = UTC
MEAN_ELEMENT_THEORY = SGP/SGP4

EPOCH          = 2026-03-18T06:00:02.000160
MEAN_MOTION    = 15.72696721
ECCENTRICITY   = .00009673
INCLINATION    = 42.9992
RA_OF_ASC_NODE = 146.0389
ARG_OF_PERICENTER = 273.7545
MEAN_ANOMALY   = 241.6735

EPHEMERIS_TYPE = 0
CLASSIFICATION_TYPE = U
NORAD_CAT_ID   = 67948
ELEMENT_SET_NO = 999
REV_AT_EPOCH   = 457
BSTAR          = -.15891945E-1
MEAN_MOTION_DOT = -.1953125E-1
MEAN_MOTION_DDOT = 0

CCSDS_OMM_VERS = 2.0
CREATION_DATE  = 
ORIGINATOR     = 

OBJECT_NAME    = STARLINK-36863
OBJECT_ID      = 2026-037T
CENTER_NAME    = EARTH
REF_FRAME      = TEME
TIME_SYSTEM    = UTC
MEAN_ELEMENT_THEORY = SGP/SGP4

EPOCH          = 2026-03-18T06:00:02.000160
MEAN_MOTION    = 15.77271172
ECCENTRICITY   = .00009278
INCLINATION    = 42.9991
RA_OF_ASC_NODE = 145.9594
ARG_OF_PERICENTER = 265.5158
MEAN_ANOMALY   = 281.9042

EPHEMERIS_TYPE = 0
CLASSIFICATION_TYPE = U
NORAD_CAT_ID   = 67949
ELEMENT_SET_NO = 999
REV_AT_EPOCH   = 457
BSTAR          = -.13065064E-1
MEAN_MOTION_DOT = -.192428E-1
MEAN_MOTION_DDOT = 0

CCSDS_OMM_VERS = 2.0
CREATION_DATE  = 
ORIGINATOR     = 

OBJECT_NAME    = STARLINK-36887
OBJECT_ID      = 2026-037U
CENTER_NAME    = EARTH
REF_FRAME      = TEME
TIME_SYSTEM    = UTC
MEAN_ELEMENT_THEORY = SGP/SGP4

EPOCH          = 2026-03-18T06:00:02.000160
MEAN_MOTION    = 15.63166987
ECCENTRICITY   = .00015166
INCLINATION    = 42.9998
RA_OF_ASC_NODE = 146.3057
ARG_OF_PERICENTER = 273.9127
MEAN_ANOMALY   = 134.6413

EPHEMERIS_TYPE = 0
CLASSIFICATION_TYPE = U
NORAD_CAT_ID   = 67950
ELEMENT_SET_NO = 999
REV_AT_EPOCH   = 457
BSTAR          = -.22961284E-1
MEAN_MOTION_DOT = -.1908055E-1
MEAN_MOTION_DDOT = 0

CCSDS_OMM_VERS = 2.0
CREATION_DATE  = 
ORIGINATOR     = 

OBJECT_NAME    = STARLINK-36897
OBJECT_ID      = 2026-037V
CENTER_NAME    = EARTH
REF_FRAME      = TEME
TIME_SYSTEM    = UTC
MEAN_ELEMENT_THEORY = SGP/SGP4

EPOCH          = 2026-03-18T06:00:02.000160
MEAN_MOTION    = 15.76235014
ECCENTRICITY   = .00011476
INCLINATION    = 42.9988
RA_OF_ASC_NODE = 145.9495
ARG_OF_PERICENTER = 254.7544
MEAN_ANOMALY   = 296.5647

EPHEMERIS_TYPE = 0
CLASSIFICATION_TYPE = U
NORAD_CAT_ID   = 67951
ELEMENT_SET_NO = 999
REV_AT_EPOCH   = 457
BSTAR          = -.13562659E-1
MEAN_MOTION_DOT = -.1909177E-1
MEAN_MOTION_DDOT = 0

CCSDS_OMM_VERS = 2.0
CREATION_DATE  = 
ORIGINATOR     = 

OBJECT_NAME    = STARLINK-36381
OBJECT_ID      = 2026-037W
CENTER_NAME    = EARTH
REF_FRAME      = TEME
TIME_SYSTEM    = UTC
MEAN_ELEMENT_THEORY = SGP/SGP4

EPOCH          = 2026-03-16T13:42:14.443200
MEAN_MOTION    = 15.81938385
ECCENTRICITY   = .00010214
INCLINATION    = 42.9982
RA_OF_ASC_NODE = 156.1801
ARG_OF_PERICENTER = 306.5215
MEAN_ANOMALY   = 53.5562

EPHEMERIS_TYPE = 0
CLASSIFICATION_TYPE = U
NORAD_CAT_ID   = 67952
ELEMENT_SET_NO = 999
REV_AT_EPOCH   = 434
BSTAR          = -.12748186E-3
MEAN_MOTION_DOT = -.27192E-3
MEAN_MOTION_DDOT = 0

