STARLINK-36927          
1 67941U 26037K   26077.25002315 -.01919555  00000+0 -13792-1 0  9994
2 67941  42.9989 146.0275 0000914 270.6712 249.5245 15.76003639  4571
STARLINK-36914          
1 67942U 26037L   26077.22219592  .00529455  00000+0  23498-2 0  9997
2 67942  42.9979 146.2001 0001371 261.7124  98.3593 15.82166214  4602
STARLINK-36851          
1 67943U 26037M   26077.25002315 -.01921004  00000+0 -13203-1 0  9995
2 67943  42.9990 146.0479 0001169 273.0339 239.0530 15.76991365  4579
STARLINK-36892          
1 67944U 26037N   26077.25002315 -.01924614  00000+0 -12759-1 0  9991
2 67944  42.9988 146.0191 0000998 267.5318 256.3152 15.77797376  4571
STARLINK-36908          
1 67945U 26037P   26076.90289904  .00440150  00000+0  20123-2 0  9994
2 67945  42.9985 148.1053 0001339 333.9537  26.1268 15.81758378  4553
STARLINK-36909          
1 67946U 26037Q   26076.90203718  .00525285  00000+0  23294-2 0  9999
2 67946  42.9983 148.0978 0001902 292.0212  68.0457 15.82194587  4550
STARLINK-36920          
1 67947U 26037R   26076.90466770  .00314164  00000+0  16750-2 0  9990
2 67947  42.9989 148.1192 0014786 343.1783  16.8596 15.78600315  4552
STARLINK-36873          
1 67948U 26037S   26077.25002315 -.01953125  00000+0 -15892-1 0  9995
2 67948  42.9992 146.0389 0000967 273.7545 241.6735 15.72696721  4577
STARLINK-36863          
1 67949U 26037T   26077.25002315 -.01924280  00000+0 -13065-1 0  9996
2 67949  42.9991 145.9594 0000927 265.5158 281.9042 15.77271172  4570
STARLINK-36887          
1 67950U 26037U   26077.25002315 -.01908055  00000+0 -22961-1 0  9995
2 67950  42.9998 146.3057 0001516 273.9127 134.6413 15.63166987  4570
STARLINK-36897          
1 67951U 26037V   26077.25002315 -.01909177  00000+0 -13563-1 0  9990
2 67951  42.9988 145.9495 0001147 254.7544 296.5647 15.76235014  4570
STARLINK-36381          
1 67952U 26037W   26075.57100050 -.00027192  00000+0 -12748-3 0  9992
2 67952  42.9982 156.1801 0001021 306.5215  53.5562 15.81938385  4341
